[{"OBJECT_NAME":"CS1","OBJECT_ID":"2021-088B","EPOCH":"2026-03-09T18:02:30.253920","MEAN_MOTION":15.31848439,"ECCENTRICITY":0.00141292,"INCLINATION":97.3882,"RA_OF_ASC_NODE":132.1684,"ARG_OF_PERICENTER":78.0335,"MEAN_ANOMALY":282.249,"EPHEMERIS_TYPE":0,"CLASSIFICATION_TYPE":"U","NORAD_CAT_ID":49261,"ELEMENT_SET_NO":999,"REV_AT_EPOCH":24518,"BSTAR":0.00051175576,"MEAN_MOTION_DOT":0.00015722,"MEAN_MOTION_DDOT":0},{"OBJECT_NAME":"STARLINK-35453","OBJECT_ID":"2025-223AA","EPOCH":"2026-03-09T21:33:40.614336","MEAN_MOTION":15.30182544,"ECCENTRICITY":9.909e-5,"INCLINATION":53.1584,"RA_OF_ASC_NODE":293.4828,"ARG_OF_PERICENTER":71.4002,"MEAN_ANOMALY":288.7107,"EPHEMERIS_TYPE":0,"CLASSIFICATION_TYPE":"U","NORAD_CAT_ID":65878,"ELEMENT_SET_NO":999,"REV_AT_EPOCH":2423,"BSTAR":-5.0444071e-5,"MEAN_MOTION_DOT":-1.852e-5,"MEAN_MOTION_DDOT":0}]
